[{"OBJECT_NAME":"ARIRANG-3 (KOMPSAT-3)","OBJECT_ID":"2012-025B","EPOCH":"2026-03-09T22:36:31.984704","MEAN_MOTION":14.62103113,"ECCENTRICITY":0.00067165,"INCLINATION":98.1064,"RA_OF_ASC_NODE":28.1838,"ARG_OF_PERICENTER":70.2114,"MEAN_ANOMALY":289.9811,"EPHEMERIS_TYPE":0,"CLASSIFICATION_TYPE":"U","NORAD_CAT_ID":38338,"ELEMENT_SET_NO":999,"REV_AT_EPOCH":73684,"BSTAR":0.00016351481,"MEAN_MOTION_DOT":7.75e-6,"MEAN_MOTION_DDOT":0},{"OBJECT_NAME":"METEOR 2-6 DEB","OBJECT_ID":"1980-073C","EPOCH":"2026-03-07T13:08:22.119072","MEAN_MOTION":14.62396284,"ECCENTRICITY":0.0021112,"INCLINATION":81.2076,"RA_OF_ASC_NODE":11.5799,"ARG_OF_PERICENTER":337.1769,"MEAN_ANOMALY":22.849,"EPHEMERIS_TYPE":0,"CLASSIFICATION_TYPE":"U","NORAD_CAT_ID":28986,"ELEMENT_SET_NO":999,"REV_AT_EPOCH":63712,"BSTAR":0.002596,"MEAN_MOTION_DOT":0.00013198,"MEAN_MOTION_DDOT":0}]
